Satellite: OKEAN-0
Catalog number: 25860
Epoch time:      08177.60473164
Element set:    0403
Inclination:      097.7492 deg
RA of node:       167.7788 deg
Eccentricity:    0.0000538
Arg of perigee:   077.5026 deg
Mean anomaly:     282.6234 deg
Mean motion:   14.73526318 rev/day
Decay rate:        5.0e-08 rev/day^2
Epoch rev:           48063
Checksum:              312

Satellite: NOAA-16
Catalog number: 26536
Epoch time:      08178.41589406
Element set:     987
Inclination:      099.1561 deg
RA of node:       167.7940 deg
Eccentricity:    0.0010160
Arg of perigee:   194.6722 deg
Mean anomaly:     165.4165 deg
Mean motion:   14.12485378 rev/day
Decay rate:      -2.51e-06 rev/day^2
Epoch rev:           40007
Checksum:              319

Satellite: NOAA-17
Catalog number: 27453
Epoch time:      08178.46796945
Element set:     978
Inclination:      098.5330 deg
RA of node:       242.8256 deg
Eccentricity:    0.0012901
Arg of perigee:   082.4890 deg
Mean anomaly:     277.7747 deg
Mean motion:   14.23983602 rev/day
Decay rate:        2.7e-07 rev/day^2
Epoch rev:           31212
Checksum:              336

Satellite: NOAA-18
Catalog number: 28654
Epoch time:      08178.48283433
Element set:     479
Inclination:      098.8671 deg
RA of node:       119.2988 deg
Eccentricity:    0.0013381
Arg of perigee:   290.2309 deg
Mean anomaly:     069.7427 deg
Mean motion:   14.11171336 rev/day
Decay rate:       -9.8e-07 rev/day^2
Epoch rev:           15978
Checksum:              353

/EX
SB KEPS @ AMSAT  $ORB08178.M
Orbital Elements  08178.MISC

HR AMSAT ORBITAL ELEMENTS FOR MANNED AND MISCELLANEOUS SATELLITES
FROM WA5QGD FORT WORTH,TX June 26, 2008
Send Subscribe/unsubscribe to KEPS at 
http://www.amsat.org/mailman/listinfo/keps
BID: ORB08178.M
TO ALL RADIO AMATEURS BT

Satellite: HUBBLE
Catalog number: 20580
Epoch time:      08177.65857160
Element set:     164
Inclination:      028.4700 deg
RA of node:       267.9702 deg
Eccentricity:    0.0003793
Arg of perigee:   116.1250 deg
Mean anomaly:     243.9730 deg
Mean motion:   15.00389079 rev/day
Decay rate:       2.92e-06 rev/day^2
Epoch rev:           79625
Checksum:              300

Satellite: PO-34
Catalog number: 25520
Epoch time:      08177.94527619
Element set:    0024
Inclination:      028.4594 deg
RA of node:       120.1476 deg
Eccentricity:    0.0005025
Arg of perigee:   019.9803 deg
Mean anomaly:     340.0990 deg
Mean motion:   15.17203722 rev/day
Decay rate:       2.52e-06 rev/day^2
Epoch rev:           53449
Checksum:              287

Satellite: ISS
Catalog number: 25544
Epoch time:      08178.55860882
Element set:     741
Inclination:      051.6417 deg
RA of node:       328.1724 deg
Eccentricity:    0.0008295
Arg of perigee:   296.2810 deg
Mean anomaly:     151.1603 deg
Mean motion:   15.74752330 rev/day
Decay rate:      9.076e-05 rev/day^2
Epoch rev:           55000
Checksum:              295

Satellite: CO-58
Catalog number: 28895
Epoch time:      08178.23745242
Element set:      54
Inclination:      098.0971 deg
RA of node:       072.0264 deg
Eccentricity:    0.0018426
Arg of perigee:   024.5315 deg
Mean anomaly:     335.6729 deg
Mean motion:   14.59678785 rev/day
Decay rate:       1.14e-06 rev/day^2
Epoch rev:           14180
Checksum:              328

Satellite: NCUBE2
Catalog number: 28897
Epoch time:      08177.65259917
Element set:    0586
Inclination:      098.0957 deg
RA of node:       071.3849 deg
Eccentricity:    0.0018010
Arg of perigee:   027.4511 deg
Mean anomaly:     332.7652 deg
Mean motion:   14.59849704 rev/day
Decay rate:       1.05e-06 rev/day^2
Epoch rev:           13400
Checksum:              324

Satellite: FCAL
Catalog number: 29667
Epoch time:      08146.34060426
Element set:     979
Inclination:      051.6107 deg
RA of node:       065.3702 deg
Eccentricity:    0.0009039
Arg of perigee:   260.8350 deg
Mean anomaly:     099.5042 deg
Mean motion:   16.53464210 rev/day
Decay rate:  1.1864717e-01 rev/day^2
Epoch rev:            8291
Checksum:              307

Satellite: FALCON
Catalog number: 30776
Epoch time:      08177.94420597
Element set:    0343
Inclination:      035.4331 deg
RA of node:       100.3822 deg
Eccentricity:    0.0000768
Arg of perigee:   034.1706 deg
Mean anomaly:     325.9065 deg
Mean motion:   15.03009631 rev/day
Decay rate:       2.32e-06 rev/day^2
Epoch rev:           07146
Checksum:              265

Satellite: MAST
Catalog number: 31126
Epoch time:      08177.57119496
Element set:    0360
Inclination:      098.0380 deg
RA of node:       241.6704 deg
Eccentricity:    0.0093944
Arg of perigee:   306.4845 deg
Mean anomaly:     052.7738 deg
Mean motion:   14.53431077 rev/day
Decay rate:       2.06e-06 rev/day^2
Epoch rev:           06323
Checksum:              296

Satellite: CAPE1
Catalog number: 31130
Epoch time:      08177.73712302
Element set:     338
Inclination:      098.0370 deg
RA of node:       240.8194 deg
Eccentricity:    0.0101791
Arg of perigee:   308.9975 deg
Mean anomaly:     050.2187 deg
Mean motion:   14.51970694 rev/day
Decay rate:       -8.2e-07 rev/day^2
Epoch rev:            6296
Checksum:              299

Satellite: CUTE1-7
Catalog number: 32785
Epoch time:      08177.42765404
Element set:    0087
Inclination:      097.9911 deg
RA of node:       237.3283 deg
Eccentricity:    0.0016356
Arg of perigee:   108.7041 deg
Mean anomaly:     251.5982 deg
Mean motion:   14.81368952 rev/day
Decay rate:       -8.6e-07 rev/day^2
Epoch rev:           00862
Checksum:              330

Satellite: COMPASS
Catalog number: 32787
Epoch time:      08177.22306055
Element set:    0076
Inclination:      097.9885 deg
RA of node:       237.0947 deg
Eccentricity:    0.0016912
Arg of perigee:   109.4000 deg
Mean anomaly:     250.9036 deg
Mean motion:   14.81425798 rev/day
Decay rate:       2.27e-06 rev/day^2
Epoch rev:           00859
Checksum:              313

Satellite: AAUSAT2
Catalog number: 32788
Epoch time:      08177.89422281
Element set:    0083
Inclination:      097.9892 deg
RA of node:       237.7739 deg
Eccentricity:    0.0016922
Arg of perigee:   108.5570 deg
Mean anomaly:     251.7469 deg
Mean motion:   14.81534616 rev/day
Decay rate:        7.0e-07 rev/day^2
Epoch rev:           00869
Checksum:              341

Satellite: DO-64
Catalog number: 32789
Epoch time:      08177.96688599
Element set:    0095
Inclination:      097.9907 deg
RA of node:       237.8561 deg
Eccentricity:    0.0017123
Arg of perigee:   107.3039 deg
Mean anomaly:     253.0044 deg
Mean motion:   14.81413964 rev/day
Decay rate:        8.8e-07 rev/day^2
Epoch rev:           00870
Checksum:              347

