OKEAN-0
1 25860U 99039A   08177.60473164  .00000005  00000-0  79297-5 0 04039
2 25860 097.7492 167.7788 0000538 077.5026 282.6234 14.73526318480636
NOAA-16
1 26536U 00055A   08178.41589406 -.00000251  00000-0 -11076-3 0  9878
2 26536 099.1561 167.7940 0010160 194.6722 165.4165 14.12485378400070
NOAA-17
1 27453U 02032A   08178.46796945  .00000027  00000-0  30431-4 0  9783
2 27453 098.5330 242.8256 0012901 082.4890 277.7747 14.23983602312122
NOAA-18
1 28654U 05018A   08178.48283433 -.00000098  00000-0 -29881-4 0  4792
2 28654 098.8671 119.2988 0013381 290.2309 069.7427 14.11171336159788
HUBBLE
1 20580U 90037B   08177.65857160  .00000292  00000-0  97419-5 0  1647
2 20580 028.4700 267.9702 0003793 116.1250 243.9730 15.00389079796258
PO-34
1 25520U 98064B   08177.94527619  .00000252  00000-0  26834-5 0 00243
2 25520 028.4594 120.1476 0005025 019.9803 340.0990 15.17203722534491
ISS
1 25544U 98067A   08178.55860882  .00009076  00000-0  64492-4 0  7412
2 25544 051.6417 328.1724 0008295 296.2810 151.1603 15.74752330550009
CO-58
1 28895U 05043F   08178.23745242  .00000114  00000-0  33493-4 0   541
2 28895 098.0971 072.0264 0018426 024.5315 335.6729 14.59678785141809
NCUBE2
1 28897U 05043H   08177.65259917  .00000105  00000-0  31512-4 0 05867
2 28897 098.0957 071.3849 0018010 027.4511 332.7652 14.59849704134003
FCAL
1 29667U 06055J   08146.34060426  .11864717  12752-4  73624-4 0  9790
2 29667 051.6107 065.3702 0009039 260.8350 099.5042 16.53464210 82911
FALCON
1 30776U 07006E   08177.94420597  .00000232  00000-0  19960-4 0 03438
2 30776 035.4331 100.3822 0000768 034.1706 325.9065 15.03009631071468
MAST
1 31126U 07012K   08177.57119496  .00000206  00000-0  57737-4 0 03601
2 31126 098.0380 241.6704 0093944 306.4845 052.7738 14.53431077063237
CAPE1
1 31130U 07012P   08177.73712302 -.00000082  00000-0 -78910-5 0  3385
2 31130 098.0370 240.8194 0101791 308.9975 050.2187 14.51970694 62967
CUTE1-7
1 32785U 08021C   08177.42765404 -.00000086  00000-0 -41325-5 0 00875
2 32785 097.9911 237.3283 0016356 108.7041 251.5982 14.81368952008628
COMPASS
1 32787U 08021E   08177.22306055  .00000227  00000-0  35883-4 0 00762
2 32787 097.9885 237.0947 0016912 109.4000 250.9036 14.81425798008596
AAUSAT2
1 32788U 08021F   08177.89422281  .00000070  00000-0  15780-4 0 00834
2 32788 097.9892 237.7739 0016922 108.5570 251.7469 14.81534616008694
DO-64
1 32789U 08021G   08177.96688599  .00000088  00000-0  18077-4 0 00953
2 32789 097.9907 237.8561 0017123 107.3039 253.0044 14.81413964008705
